STARLINK-36948          
1 68209U 26053C   26095.44518138  .00254421  00000+0  12843-2 0  9994
2 68209  97.2845 331.0736 0001422  86.6609 273.4822 15.80923541  4267
STARLINK-37119          
1 68210U 26053D   26095.50772659  .00173907  00000+0  88649-3 0  9990
2 68210  97.2851 331.1408 0001258  85.5918 274.5494 15.80919140  4291
STARLINK-37120          
1 68211U 26053E   26095.50697506  .00188810  00000+0  96011-3 0  9999
2 68211  97.2850 331.1417 0001306  66.6647 293.4759 15.80933762  4272
STARLINK-37117          
1 68212U 26053F   26095.44292494  .00234641  00000+0  11866-2 0  9998
2 68212  97.2836 331.0751 0001166 103.9654 256.1744 15.80934982  4280
STARLINK-37116          
1 68213U 26053G   26095.44216733  .00162893  00000+0  83067-3 0  9993
2 68213  97.2848 331.0772 0001794  96.3333 263.8140 15.80939018  4283
STARLINK-35854          
1 68214U 26053H   26095.44142931  .00184283  00000+0  93813-3 0  9999
2 68214  97.2848 331.0781 0001417 128.3086 231.8310 15.80921027  4260
STARLINK-36272          
1 68215U 26053J   26095.50003471 -.01912515  00000+0 -21107-1 0  9997
2 68215  97.2846 331.1026 0001885  98.5911 146.7806 15.66090012  4210
STARLINK-37014          
1 68216U 26053K   26095.50321903  .00174258  00000+0  88872-3 0  9996
2 68216  97.2847 331.1470 0001917 113.9046 246.2423 15.80906625  4293
STARLINK-37011          
1 68217U 26053L   26095.50246718  .00172021  00000+0  87672-3 0  9990
2 68217  97.2847 331.1484 0001527  60.6871 299.4550 15.80927918  4299
STARLINK-37108          
1 68218U 26053M   26095.50171406  .00167755  00000+0  85536-3 0  9997
2 68218  97.2845 331.1493 0001202  69.9628 290.1769 15.80929618  4299
STARLINK-37106          
1 68219U 26053N   26095.50096535  .00180955  00000+0  92193-3 0  9991
2 68219  97.2845 331.1504 0001749  61.1959 298.9485 15.80911898  4292
STARLINK-37030          
1 68220U 26053P   26095.50003471 -.01875785  00000+0 -12701-1 0  9990
2 68220  97.2846 331.1522 0001205  90.5531 269.6096 15.78029575  4320
