CCSDS_OMM_VERS = 2.0
CREATION_DATE  = 
ORIGINATOR     = 

OBJECT_NAME    = STARLINK-36948
OBJECT_ID      = 2026-053C
CENTER_NAME    = EARTH
REF_FRAME      = TEME
TIME_SYSTEM    = UTC
MEAN_ELEMENT_THEORY = SGP/SGP4

EPOCH          = 2026-04-05T10:41:03.671232
MEAN_MOTION    = 15.80923541
ECCENTRICITY   = .0001422
INCLINATION    = 97.2845
RA_OF_ASC_NODE = 331.0736
ARG_OF_PERICENTER = 86.6609
MEAN_ANOMALY   = 273.4822

EPHEMERIS_TYPE = 0
CLASSIFICATION_TYPE = U
NORAD_CAT_ID   = 68209
ELEMENT_SET_NO = 999
REV_AT_EPOCH   = 426
BSTAR          = .12843E-2
MEAN_MOTION_DOT = .254421E-2
MEAN_MOTION_DDOT = 0

CCSDS_OMM_VERS = 2.0
CREATION_DATE  = 
ORIGINATOR     = 

OBJECT_NAME    = STARLINK-37119
OBJECT_ID      = 2026-053D
CENTER_NAME    = EARTH
REF_FRAME      = TEME
TIME_SYSTEM    = UTC
MEAN_ELEMENT_THEORY = SGP/SGP4

EPOCH          = 2026-04-05T12:11:07.577376
MEAN_MOTION    = 15.80919140
ECCENTRICITY   = .0001258
INCLINATION    = 97.2851
RA_OF_ASC_NODE = 331.1408
ARG_OF_PERICENTER = 85.5918
MEAN_ANOMALY   = 274.5494

EPHEMERIS_TYPE = 0
CLASSIFICATION_TYPE = U
NORAD_CAT_ID   = 68210
ELEMENT_SET_NO = 999
REV_AT_EPOCH   = 429
BSTAR          = .88649E-3
MEAN_MOTION_DOT = .173907E-2
MEAN_MOTION_DDOT = 0

CCSDS_OMM_VERS = 2.0
CREATION_DATE  = 
ORIGINATOR     = 

OBJECT_NAME    = STARLINK-37120
OBJECT_ID      = 2026-053E
CENTER_NAME    = EARTH
REF_FRAME      = TEME
TIME_SYSTEM    = UTC
MEAN_ELEMENT_THEORY = SGP/SGP4

EPOCH          = 2026-04-05T12:10:02.645184
MEAN_MOTION    = 15.80933762
ECCENTRICITY   = .0001306
INCLINATION    = 97.2850
RA_OF_ASC_NODE = 331.1417
ARG_OF_PERICENTER = 66.6647
MEAN_ANOMALY   = 293.4759

EPHEMERIS_TYPE = 0
CLASSIFICATION_TYPE = U
NORAD_CAT_ID   = 68211
ELEMENT_SET_NO = 999
REV_AT_EPOCH   = 427
BSTAR          = .96011E-3
MEAN_MOTION_DOT = .18881E-2
MEAN_MOTION_DDOT = 0

CCSDS_OMM_VERS = 2.0
CREATION_DATE  = 
ORIGINATOR     = 

OBJECT_NAME    = STARLINK-37117
OBJECT_ID      = 2026-053F
CENTER_NAME    = EARTH
REF_FRAME      = TEME
TIME_SYSTEM    = UTC
MEAN_ELEMENT_THEORY = SGP/SGP4

EPOCH          = 2026-04-05T10:37:48.714816
MEAN_MOTION    = 15.80934982
ECCENTRICITY   = .0001166
INCLINATION    = 97.2836
RA_OF_ASC_NODE = 331.0751
ARG_OF_PERICENTER = 103.9654
MEAN_ANOMALY   = 256.1744

EPHEMERIS_TYPE = 0
CLASSIFICATION_TYPE = U
NORAD_CAT_ID   = 68212
ELEMENT_SET_NO = 999
REV_AT_EPOCH   = 428
BSTAR          = .11866E-2
MEAN_MOTION_DOT = .234641E-2
MEAN_MOTION_DDOT = 0

CCSDS_OMM_VERS = 2.0
CREATION_DATE  = 
ORIGINATOR     = 

OBJECT_NAME    = STARLINK-37116
OBJECT_ID      = 2026-053G
CENTER_NAME    = EARTH
REF_FRAME      = TEME
TIME_SYSTEM    = UTC
MEAN_ELEMENT_THEORY = SGP/SGP4

EPOCH          = 2026-04-05T10:36:43.257312
MEAN_MOTION    = 15.80939018
ECCENTRICITY   = .0001794
INCLINATION    = 97.2848
RA_OF_ASC_NODE = 331.0772
ARG_OF_PERICENTER = 96.3333
MEAN_ANOMALY   = 263.8140

EPHEMERIS_TYPE = 0
CLASSIFICATION_TYPE = U
NORAD_CAT_ID   = 68213
ELEMENT_SET_NO = 999
REV_AT_EPOCH   = 428
BSTAR          = .83067E-3
MEAN_MOTION_DOT = .162893E-2
MEAN_MOTION_DDOT = 0

CCSDS_OMM_VERS = 2.0
CREATION_DATE  = 
ORIGINATOR     = 

OBJECT_NAME    = STARLINK-35854
OBJECT_ID      = 2026-053H
CENTER_NAME    = EARTH
REF_FRAME      = TEME
TIME_SYSTEM    = UTC
MEAN_ELEMENT_THEORY = SGP/SGP4

EPOCH          = 2026-04-05T10:35:39.492384
MEAN_MOTION    = 15.80921027
ECCENTRICITY   = .0001417
INCLINATION    = 97.2848
RA_OF_ASC_NODE = 331.0781
ARG_OF_PERICENTER = 128.3086
MEAN_ANOMALY   = 231.8310

EPHEMERIS_TYPE = 0
CLASSIFICATION_TYPE = U
NORAD_CAT_ID   = 68214
ELEMENT_SET_NO = 999
REV_AT_EPOCH   = 426
BSTAR          = .93813E-3
MEAN_MOTION_DOT = .184283E-2
MEAN_MOTION_DDOT = 0

CCSDS_OMM_VERS = 2.0
CREATION_DATE  = 
ORIGINATOR     = 

OBJECT_NAME    = STARLINK-36272
OBJECT_ID      = 2026-053J
CENTER_NAME    = EARTH
REF_FRAME      = TEME
TIME_SYSTEM    = UTC
MEAN_ELEMENT_THEORY = SGP/SGP4

EPOCH          = 2026-04-05T12:00:02.998944
MEAN_MOTION    = 15.66090012
ECCENTRICITY   = .0001885
INCLINATION    = 97.2846
RA_OF_ASC_NODE = 331.1026
ARG_OF_PERICENTER = 98.5911
MEAN_ANOMALY   = 146.7806

EPHEMERIS_TYPE = 0
CLASSIFICATION_TYPE = U
NORAD_CAT_ID   = 68215
ELEMENT_SET_NO = 999
REV_AT_EPOCH   = 421
BSTAR          = -.21107E-1
MEAN_MOTION_DOT = -.1912515E-1
MEAN_MOTION_DDOT = 0

CCSDS_OMM_VERS = 2.0
CREATION_DATE  = 
ORIGINATOR     = 

OBJECT_NAME    = STARLINK-37014
OBJECT_ID      = 2026-053K
CENTER_NAME    = EARTH
REF_FRAME      = TEME
TIME_SYSTEM    = UTC
MEAN_ELEMENT_THEORY = SGP/SGP4

EPOCH          = 2026-04-05T12:04:38.124192
MEAN_MOTION    = 15.80906625
ECCENTRICITY   = .0001917
INCLINATION    = 97.2847
RA_OF_ASC_NODE = 331.1470
ARG_OF_PERICENTER = 113.9046
MEAN_ANOMALY   = 246.2423

EPHEMERIS_TYPE = 0
CLASSIFICATION_TYPE = U
NORAD_CAT_ID   = 68216
ELEMENT_SET_NO = 999
REV_AT_EPOCH   = 429
BSTAR          = .88872E-3
MEAN_MOTION_DOT = .174258E-2
MEAN_MOTION_DDOT = 0

CCSDS_OMM_VERS = 2.0
CREATION_DATE  = 
ORIGINATOR     = 

OBJECT_NAME    = STARLINK-37011
OBJECT_ID      = 2026-053L
CENTER_NAME    = EARTH
REF_FRAME      = TEME
TIME_SYSTEM    = UTC
MEAN_ELEMENT_THEORY = SGP/SGP4

EPOCH          = 2026-04-05T12:03:33.164352
MEAN_MOTION    = 15.80927918
ECCENTRICITY   = .0001527
INCLINATION    = 97.2847
RA_OF_ASC_NODE = 331.1484
ARG_OF_PERICENTER = 60.6871
MEAN_ANOMALY   = 299.4550

EPHEMERIS_TYPE = 0
CLASSIFICATION_TYPE = U
NORAD_CAT_ID   = 68217
ELEMENT_SET_NO = 999
REV_AT_EPOCH   = 429
BSTAR          = .87672E-3
MEAN_MOTION_DOT = .172021E-2
MEAN_MOTION_DDOT = 0

CCSDS_OMM_VERS = 2.0
CREATION_DATE  = 
ORIGINATOR     = 

OBJECT_NAME    = STARLINK-37108
OBJECT_ID      = 2026-053M
CENTER_NAME    = EARTH
REF_FRAME      = TEME
TIME_SYSTEM    = UTC
MEAN_ELEMENT_THEORY = SGP/SGP4

EPOCH          = 2026-04-05T12:02:28.094784
MEAN_MOTION    = 15.80929618
ECCENTRICITY   = .0001202
INCLINATION    = 97.2845
RA_OF_ASC_NODE = 331.1493
ARG_OF_PERICENTER = 69.9628
MEAN_ANOMALY   = 290.1769

EPHEMERIS_TYPE = 0
CLASSIFICATION_TYPE = U
NORAD_CAT_ID   = 68218
ELEMENT_SET_NO = 999
REV_AT_EPOCH   = 429
BSTAR          = .85536E-3
MEAN_MOTION_DOT = .167755E-2
MEAN_MOTION_DDOT = 0

CCSDS_OMM_VERS = 2.0
CREATION_DATE  = 
ORIGINATOR     = 

OBJECT_NAME    = STARLINK-37106
OBJECT_ID      = 2026-053N
CENTER_NAME    = EARTH
REF_FRAME      = TEME
TIME_SYSTEM    = UTC
MEAN_ELEMENT_THEORY = SGP/SGP4

EPOCH          = 2026-04-05T12:01:23.406240
MEAN_MOTION    = 15.80911898
ECCENTRICITY   = .0001749
INCLINATION    = 97.2845
RA_OF_ASC_NODE = 331.1504
ARG_OF_PERICENTER = 61.1959
MEAN_ANOMALY   = 298.9485

EPHEMERIS_TYPE = 0
CLASSIFICATION_TYPE = U
NORAD_CAT_ID   = 68219
ELEMENT_SET_NO = 999
REV_AT_EPOCH   = 429
BSTAR          = .92193E-3
MEAN_MOTION_DOT = .180955E-2
MEAN_MOTION_DDOT = 0

CCSDS_OMM_VERS = 2.0
CREATION_DATE  = 
ORIGINATOR     = 

OBJECT_NAME    = STARLINK-37030
OBJECT_ID      = 2026-053P
CENTER_NAME    = EARTH
REF_FRAME      = TEME
TIME_SYSTEM    = UTC
MEAN_ELEMENT_THEORY = SGP/SGP4

EPOCH          = 2026-04-05T12:00:02.998944
MEAN_MOTION    = 15.78029575
ECCENTRICITY   = .0001205
INCLINATION    = 97.2846
RA_OF_ASC_NODE = 331.1522
ARG_OF_PERICENTER = 90.5531
MEAN_ANOMALY   = 269.6096

EPHEMERIS_TYPE = 0
CLASSIFICATION_TYPE = U
NORAD_CAT_ID   = 68220
ELEMENT_SET_NO = 999
REV_AT_EPOCH   = 432
BSTAR          = -.12701E-1
MEAN_MOTION_DOT = -.1875785E-1
MEAN_MOTION_DDOT = 0

